FENGYUN 3D              
1 43010U 17072A   26193.23633947  .00000096  00000+0  67197-4 0  9991
2 43010  99.0136 168.1128 0001720  21.3195 338.8052 14.19744631448540
NOAA 20 (JPSS-1)        
1 43013U 17073A   26193.16493314  .00000012  00000+0  26591-4 0  9990
2 43013  98.7774 132.4062 0001277 127.1465 232.9828 14.19516095448018
GOES 17                 
1 43226U 18022A   26193.11747531 -.00000181  00000+0  00000+0 0  9999
2 43226   0.9984  85.2989 0000520  88.6386  68.8748  1.00272084 30677
SENTINEL-3B             
1 43437U 18039A   26192.80528163  .00000035  00000+0  32445-4 0  9994
2 43437  98.6234 259.9834 0001055 113.9245 246.2046 14.26735652427638
FENGYUN 2H              
1 43491U 18050A   26193.07961487 -.00000127  00000+0  00000+0 0  9997
2 43491   3.0915  78.7821 0002283 132.2528 186.7834  1.00267474 29685
METOP-C                 
1 43689U 18087A   26193.12590374  .00000036  00000+0  36210-4 0  9990
2 43689  98.6631 252.2721 0002217  97.7719 262.3710 14.21518492398376
GEO-KOMPSAT-2A          
1 43823U 18100A   26193.16711421 -.00000341  00000+0  00000+0 0  9991
2 43823   0.0254 116.8637 0001932 344.9349  16.6926  1.00271211 27886
METEOR-M2 2             
1 44387U 19038A   26193.18200098  .00000092  00000+0  59500-4 0  9999
2 44387  98.9155 180.8374 0000939   9.7674 350.3522 14.24372428364853
ARKTIKA-M 1             
1 47719U 21016A   26188.42887598 -.00000257  00000+0  00000+0 0  9997
2 47719  63.2524  54.6812 7295086 270.0380  14.5466  2.00614486 39194
FENGYUN 3E              
1 49008U 21062A   26193.14697204  .00000027  00000+0  33274-4 0  9997
2 49008  98.7501 196.2767 0002396  45.1212 315.0158 14.19905904260122
GOES 18                 
1 51850U 22021A   26193.17943171  .00000000  00000+0  00000+0 0  9998
2 51850   0.0197  79.9300 0000647 116.4844  21.2648  1.00272742  6847
NOAA 21 (JPSS-2)        
1 54234U 22150A   26193.12679443  .00000001  00000+0  20901-4 0  9991
2 54234  98.7061 131.4971 0002760 110.0783 250.0690 14.19540758190086
METEOSAT-12 (MTG-I1)    
1 54743U 22170C   26193.13520449 -.00000006  00000+0  00000+0 0  9999
2 54743   0.7218  19.1276 0003777  82.8000 236.5011  1.00267041 13228
TIANMU-1 03             
1 55973U 23039A   26193.20168297  .00009197  00000+0  17790-3 0  9994
2 55973  97.5236   8.1645 0002839  34.5986 325.5448 15.47986540184704
TIANMU-1 04             
1 55974U 23039B   26193.18131307  .00010430  00000+0  19717-3 0  9997
2 55974  97.5171   7.2992 0003332  24.1549 335.9857 15.48608866184710
TIANMU-1 05             
1 55975U 23039C   26193.18367641  .00010049  00000+0  19470-3 0  9992
2 55975  97.5216   7.7515 0003243  53.3771 306.7776 15.47910082184686
TIANMU-1 06             
1 55976U 23039D   26193.18629755  .00009911  00000+0  18814-3 0  9997
2 55976  97.5224   8.4153 0003360  45.5991 314.5534 15.48505862184719
FENGYUN 3G              
1 56232U 23055A   26193.19721007  .00014338  00000+0  22637-3 0  9992
2 56232  49.9908 217.0486 0007168  42.1782 317.9736 15.53697506183895
METEOR-M2 3             
1 57166U 23091A   26193.18209150 -.00000026  00000+0  73993-5 0  9991
2 57166  98.6070 247.6473 0005146  97.0205 263.1560 14.24048740158077
TIANMU-1 07             
1 57399U 23101A   26193.14981803  .00003970  00000+0  13886-3 0  9992
2 57399  97.2584 243.2470 0003939  70.7180 289.4487 15.30093444165466
TIANMU-1 08             
1 57400U 23101B   26193.18179009  .00003615  00000+0  12665-3 0  9996
2 57400  97.2573 243.0452 0004870  54.4145 305.7549 15.30097061165460
TIANMU-1 09             
1 57401U 23101C   26193.16463110  .00003829  00000+0  13382-3 0  9998
2 57401  97.2531 242.4315 0004545  71.5546 288.6189 15.30137437165461
TIANMU-1 10             
1 57402U 23101D   26193.19812209  .00003784  00000+0  13238-3 0  9999
2 57402  97.2610 243.5402 0005866  62.3467 297.8369 15.30110869165468
FENGYUN 3F              
1 57490U 23111A   26193.20075459 -.00000008  00000+0  16891-4 0  9993
2 57490  98.6826 262.7422 0001325  77.6888 282.4437 14.19943093152412
ARKTIKA-M 2             
1 58584U 23198A   26191.19028483  .00000186  00000+0  00000+0 0  9990
2 58584  63.2187 151.7914 6909064 267.3543  18.7503  2.00608615 18787
TIANMU-1 11             
1 58645U 23205A   26193.21503231  .00003141  00000+0  12036-3 0  9991
2 58645  97.3443 214.3820 0006769 275.5252  84.5215 15.27244926141346
TIANMU-1 12             
1 58646U 23205B   26193.18710185  .00003320  00000+0  12774-3 0  9994
2 58646  97.3432 214.1027 0005616 248.2681 111.7961 15.27075640141329
TIANMU-1 13             
1 58647U 23205C   26193.22052918  .00003370  00000+0  12963-3 0  9998
2 58647  97.3459 214.4145 0005508 224.9473 135.1321 15.27068681141320
TIANMU-1 14             
1 58648U 23205D   26193.20500731  .00003456  00000+0  13269-3 0  9993
2 58648  97.3395 213.5614 0006172 232.9543 127.1133 15.27112946141322
TIANMU-1 19             
1 58660U 23208A   26193.17633506  .00005150  00000+0  16952-3 0  9998
2 58660  97.4521 309.6123 0004294 210.0015 150.0980 15.31946508141154
TIANMU-1 20             
1 58661U 23208B   26193.19474792  .00004896  00000+0  15540-3 0  9999
2 58661  97.4462 310.2921 0006070 224.0770 135.9988 15.33135020141252
