OBJECT_NAME,OBJECT_ID,EPOCH,MEAN_MOTION,ECCENTRICITY,INCLINATION,RA_OF_ASC_NODE,ARG_OF_PERICENTER,MEAN_ANOMALY,EPHEMERIS_TYPE,CLASSIFICATION_TYPE,NORAD_CAT_ID,ELEMENT_SET_NO,REV_AT_EPOCH,BSTAR,MEAN_MOTION_DOT,MEAN_MOTION_DDOT
FENGYUN 3D,2017-072A,2026-07-12T05:40:19.730208,14.19744631,.000172,99.0136,168.1128,21.3195,338.8052,0,U,43010,999,44854,.67197E-4,.96E-6,0
NOAA 20 (JPSS-1),2017-073A,2026-07-12T03:57:30.223296,14.19516095,.0001277,98.7774,132.4062,127.1465,232.9828,0,U,43013,999,44801,.26591E-4,.12E-6,0
GOES 17,2018-022A,2026-07-12T02:49:09.866784,1.00272084,.000052,0.9984,85.2989,88.6386,68.8748,0,U,43226,999,3067,0,-.181E-5,0
SENTINEL-3B,2018-039A,2026-07-11T19:19:36.332832,14.26735652,.0001055,98.6234,259.9834,113.9245,246.2046,0,U,43437,999,42763,.32445E-4,.35E-6,0
FENGYUN 2H,2018-050A,2026-07-12T01:54:38.724768,1.00267474,.0002283,3.0915,78.7821,132.2528,186.7834,0,U,43491,999,2968,0,-.127E-5,0
METOP-C,2018-087A,2026-07-12T03:01:18.083136,14.21518492,.0002217,98.6631,252.2721,97.7719,262.3710,0,U,43689,999,39837,.3621E-4,.36E-6,0
GEO-KOMPSAT-2A,2018-100A,2026-07-12T04:00:38.667744,1.00271211,.0001932,0.0254,116.8637,344.9349,16.6926,0,U,43823,999,2788,0,-.341E-5,0
METEOR-M2 2,2019-038A,2026-07-12T04:22:04.884672,14.24372428,.0000939,98.9155,180.8374,9.7674,350.3522,0,U,44387,999,36485,.595E-4,.92E-6,0
ARKTIKA-M 1,2021-016A,2026-07-07T10:17:34.884672,2.00614486,.72950864,63.2524,54.6812,270.0380,14.5466,0,U,47719,999,3919,0,-.257E-5,0
FENGYUN 3E,2021-062A,2026-07-12T03:31:38.384256,14.19905904,.0002396,98.7501,196.2767,45.1212,315.0158,0,U,49008,999,26012,.33274E-4,.27E-6,0
GOES 18,2022-021A,2026-07-12T04:18:22.899744,1.00272742,.0000647,0.0197,79.9300,116.4844,21.2648,0,U,51850,999,684,0,0,0
NOAA 21 (JPSS-2),2022-150A,2026-07-12T03:02:35.038752,14.19540758,.000276,98.7061,131.4971,110.0783,250.0690,0,U,54234,999,19008,.20901E-4,.1E-7,0
METEOSAT-12 (MTG-I1),2022-170C,2026-07-12T03:14:41.667936,1.00267041,.0003777,0.7218,19.1276,82.8000,236.5011,0,U,54743,999,1322,0,-.6E-7,0
TIANMU-1 03,2023-039A,2026-07-12T04:50:25.408608,15.47986540,.0002839,97.5236,8.1645,34.5986,325.5448,0,U,55973,999,18470,.1779E-3,.9197E-4,0
TIANMU-1 04,2023-039B,2026-07-12T04:21:05.449248,15.48608866,.0003332,97.5171,7.2992,24.1549,335.9857,0,U,55974,999,18471,.19717E-3,.1043E-3,0
TIANMU-1 05,2023-039C,2026-07-12T04:24:29.641824,15.47910082,.0003243,97.5216,7.7515,53.3771,306.7776,0,U,55975,999,18468,.1947E-3,.10049E-3,0
TIANMU-1 06,2023-039D,2026-07-12T04:28:16.108320,15.48505862,.000336,97.5224,8.4153,45.5991,314.5534,0,U,55976,999,18471,.18814E-3,.9911E-4,0
FENGYUN 3G,2023-055A,2026-07-12T04:43:58.950048,15.53697506,.0007168,49.9908,217.0486,42.1782,317.9736,0,U,56232,999,18389,.22637E-3,.14338E-3,0
METEOR-M2 3,2023-091A,2026-07-12T04:22:12.705600,14.24048740,.0005146,98.6070,247.6473,97.0205,263.1560,0,U,57166,999,15807,.73993E-5,-.26E-6,0
TIANMU-1 07,2023-101A,2026-07-12T03:35:44.277792,15.30093444,.0003939,97.2584,243.2470,70.7180,289.4487,0,U,57399,999,16546,.13886E-3,.397E-4,0
TIANMU-1 08,2023-101B,2026-07-12T04:21:46.663776,15.30097061,.000487,97.2573,243.0452,54.4145,305.7549,0,U,57400,999,16546,.12665E-3,.3615E-4,0
TIANMU-1 09,2023-101C,2026-07-12T03:57:04.127040,15.30137437,.0004545,97.2531,242.4315,71.5546,288.6189,0,U,57401,999,16546,.13382E-3,.3829E-4,0
TIANMU-1 10,2023-101D,2026-07-12T04:45:17.748576,15.30110869,.0005866,97.2610,243.5402,62.3467,297.8369,0,U,57402,999,16546,.13238E-3,.3784E-4,0
FENGYUN 3F,2023-111A,2026-07-12T04:49:05.196576,14.19943093,.0001325,98.6826,262.7422,77.6888,282.4437,0,U,57490,999,15241,.16891E-4,-.8E-7,0
ARKTIKA-M 2,2023-198A,2026-07-10T04:34:00.609312,2.00608615,.69090643,63.2187,151.7914,267.3543,18.7503,0,U,58584,999,1878,0,.186E-5,0
TIANMU-1 11,2023-205A,2026-07-12T05:09:38.791584,15.27244926,.0006769,97.3443,214.3820,275.5252,84.5215,0,U,58645,999,14134,.12036E-3,.3141E-4,0
TIANMU-1 12,2023-205B,2026-07-12T04:29:25.599840,15.27075640,.0005616,97.3432,214.1027,248.2681,111.7961,0,U,58646,999,14132,.12774E-3,.332E-4,0
TIANMU-1 13,2023-205C,2026-07-12T05:17:33.721152,15.27068681,.0005508,97.3459,214.4145,224.9473,135.1321,0,U,58647,999,14132,.12963E-3,.337E-4,0
TIANMU-1 14,2023-205D,2026-07-12T04:55:12.631584,15.27112946,.0006172,97.3395,213.5614,232.9543,127.1133,0,U,58648,999,14132,.13269E-3,.3456E-4,0
TIANMU-1 19,2023-208A,2026-07-12T04:13:55.349184,15.31946508,.0004294,97.4521,309.6123,210.0015,150.0980,0,U,58660,999,14115,.16952E-3,.515E-4,0
TIANMU-1 20,2023-208B,2026-07-12T04:40:26.220288,15.33135020,.000607,97.4462,310.2921,224.0770,135.9988,0,U,58661,999,14125,.1554E-3,.4896E-4,0
